{
  "norad_id": 63012,
  "name": "STARLINK-11449 [DTC]",
  "history": [
    {
      "epoch": "2026-03-28T16:41:38.351328Z",
      "apogee_km": 357.16840101837715,
      "perigee_km": 355.43536051679894,
      "latitude_deg": 4.33760121718977e-05,
      "longitude_deg": 4.1932155425889235,
      "height_km": 356.1164529052374,
      "semi_major_axis_km": 6734.438880767588,
      "eccentricity": 0.00012867,
      "inclination_deg": 43.001,
      "raan_deg": 80.7153,
      "arg_perigee_deg": 267.2135,
      "mean_anomaly_deg": 92.8586,
      "mean_motion_rev_day": 15.70907591
    }
  ]
}