{"fetched_at":"2026-03-30T06:02:59Z","count":15439,"tles":[{"name":"STARLINK-11449 [DTC]","line1":"1 63012U 25032H   26087.69558277  .00226254  00000+0  17143-2 0  9994","line2":"2 63012  43.0010  80.7153 0001286 267.2135  92.8586 15.70907591 65204","category":"Starlink"}]}